{
  "norad_id": 44907,
  "name": "GONETS-M 16",
  "history": [
    {
      "epoch": "2026-03-28T22:17:42.930240Z",
      "apogee_km": 1503.5326478987572,
      "perigee_km": 1485.2251122196794,
      "latitude_deg": 6.947557459684803e-06,
      "longitude_deg": -26.92774475654924,
      "height_km": 1490.0152672264524,
      "semi_major_axis_km": 7872.515880059218,
      "eccentricity": 0.00116275,
      "inclination_deg": 82.5193,
      "raan_deg": 133.8435,
      "arg_perigee_deg": 39.6569,
      "mean_anomaly_deg": 320.5359,
      "mean_motion_rev_day": 12.42889285
    },
    {
      "epoch": "2026-03-29T04:05:27.737952Z",
      "apogee_km": 1503.5320706521825,
      "perigee_km": 1485.2284680009989,
      "latitude_deg": 3.128589042792799e-05,
      "longitude_deg": -114.25216454089619,
      "height_km": 1489.9672760182013,
      "semi_major_axis_km": 7872.51726932659,
      "eccentricity": 0.0011625,
      "inclination_deg": 82.5193,
      "raan_deg": 133.6938,
      "arg_perigee_deg": 39.153,
      "mean_anomaly_deg": 321.0389,
      "mean_motion_rev_day": 12.42888956
    },
    {
      "epoch": "2026-03-30T05:12:21.837024Z",
      "apogee_km": 1503.4964042723786,
      "perigee_km": 1485.262082149853,
      "latitude_deg": 7.406395033324204e-05,
      "longitude_deg": -132.65800860847008,
      "height_km": 1489.7829338399663,
      "semi_major_axis_km": 7872.516243211116,
      "eccentricity": 0.0011581,
      "inclination_deg": 82.5191,
      "raan_deg": 133.0448,
      "arg_perigee_deg": 37.0018,
      "mean_anomaly_deg": 323.1859,
      "mean_motion_rev_day": 12.42889199
    },
    {
      "epoch": "2026-03-30T05:12:21.851712Z",
      "apogee_km": 1503.5089619006367,
      "perigee_km": 1485.2514922985802,
      "latitude_deg": -8.765470566662965e-06,
      "longitude_deg": -132.65808079936747,
      "height_km": 1489.7685931830868,
      "semi_major_axis_km": 7872.517227099608,
      "eccentricity": 0.00115957,
      "inclination_deg": 82.5192,
      "raan_deg": 133.0448,
      "arg_perigee_deg": 36.9381,
      "mean_anomaly_deg": 323.2495,
      "mean_motion_rev_day": 12.42888966
    },
    {
      "epoch": "2026-03-30T14:51:56.486592Z",
      "apogee_km": 1503.4830425935534,
      "perigee_km": 1485.2747006340978,
      "latitude_deg": -3.966331230209012e-05,
      "longitude_deg": 81.80139709850621,
      "height_km": 1489.7182097951943,
      "semi_major_axis_km": 7872.515871613825,
      "eccentricity": 0.00115645,
      "inclination_deg": 82.5192,
      "raan_deg": 132.7953,
      "arg_perigee_deg": 36.2092,
      "mean_anomaly_deg": 323.9768,
      "mean_motion_rev_day": 12.42889287
    },
    {
      "epoch": "2026-03-30T22:35:36.216960Z",
      "apogee_km": 1503.4967540233238,
      "perigee_km": 1485.2614874825013,
      "latitude_deg": -1.6296748622207013e-06,
      "longitude_deg": -34.63140623975843,
      "height_km": 1489.6358467488417,
      "semi_major_axis_km": 7872.516120752913,
      "eccentricity": 0.00115816,
      "inclination_deg": 82.5191,
      "raan_deg": 132.5954,
      "arg_perigee_deg": 35.4359,
      "mean_anomaly_deg": 324.7488,
      "mean_motion_rev_day": 12.42889228
    },
    {
      "epoch": "2026-03-31T19:50:40.458624Z",
      "apogee_km": 1503.4612095416205,
      "perigee_km": 1485.2993122207672,
      "latitude_deg": -1.4541150737961862e-05,
      "longitude_deg": 5.178864823225558,
      "height_km": 1489.5079548386843,
      "semi_major_axis_km": 7872.517260881194,
      "eccentricity": 0.0011535,
      "inclination_deg": 82.5187,
      "raan_deg": 132.0461,
      "arg_perigee_deg": 33.659,
      "mean_anomaly_deg": 326.522,
      "mean_motion_rev_day": 12.42888958
    },
    {
      "epoch": "2026-04-01T19:01:39.608256Z",
      "apogee_km": 1503.4217243564299,
      "perigee_km": 1485.338552489472,
      "latitude_deg": -4.6179303303002545e-05,
      "longitude_deg": 15.881109141672503,
      "height_km": 1489.3676922938341,
      "semi_major_axis_km": 7872.517138422951,
      "eccentricity": 0.0011485,
      "inclination_deg": 82.5183,
      "raan_deg": 131.4469,
      "arg_perigee_deg": 31.6169,
      "mean_anomaly_deg": 328.5598,
      "mean_motion_rev_day": 12.42888987
    },
    {
      "epoch": "2026-04-02T20:08:33.651168Z",
      "apogee_km": 1503.389065124452,
      "perigee_km": 1485.3657306619161,
      "latitude_deg": -4.482103182650899e-05,
      "longitude_deg": -2.5249055287270914,
      "height_km": 1489.2143621817465,
      "semi_major_axis_km": 7872.514397893184,
      "eccentricity": 0.0011447,
      "inclination_deg": 82.5179,
      "raan_deg": 130.7975,
      "arg_perigee_deg": 29.4001,
      "mean_anomaly_deg": 330.772,
      "mean_motion_rev_day": 12.42889636
    },
    {
      "epoch": "2026-04-02T22:04:28.560864Z",
      "apogee_km": 1503.380327465824,
      "perigee_km": 1485.371639116026,
      "latitude_deg": -6.808175259208898e-05,
      "longitude_deg": -31.63294002147352,
      "height_km": 1489.2068865123254,
      "semi_major_axis_km": 7872.512983290924,
      "eccentricity": 0.00114377,
      "inclination_deg": 82.5178,
      "raan_deg": 130.7476,
      "arg_perigee_deg": 29.2374,
      "mean_anomaly_deg": 330.9343,
      "mean_motion_rev_day": 12.42889971
    },
    {
      "epoch": "2026-04-03T19:19:32.793024Z",
      "apogee_km": 1503.3572317040716,
      "perigee_km": 1485.3984508481526,
      "latitude_deg": 2.142886340576457e-06,
      "longitude_deg": 8.1772803820332,
      "height_km": 1489.0945677791733,
      "semi_major_axis_km": 7872.514841276112,
      "eccentricity": 0.0011406,
      "inclination_deg": 82.5174,
      "raan_deg": 130.1982,
      "arg_perigee_deg": 27.3986,
      "mean_anomaly_deg": 332.7693,
      "mean_motion_rev_day": 12.42889531
    },
    {
      "epoch": "2026-04-04T04:59:07.435680Z",
      "apogee_km": 1503.3438712607312,
      "perigee_km": 1485.4132723440816,
      "latitude_deg": -3.5518112604027734e-05,
      "longitude_deg": -137.3634757710814,
      "height_km": 1489.0463873709139,
      "semi_major_axis_km": 7872.515571802406,
      "eccentricity": 0.00113881,
      "inclination_deg": 82.5172,
      "raan_deg": 129.9485,
      "arg_perigee_deg": 26.5277,
      "mean_anomaly_deg": 333.6383,
      "mean_motion_rev_day": 12.42889358
    },
    {
      "epoch": "2026-04-05T13:49:41.183040Z",
      "apogee_km": 1503.29308658437,
      "perigee_km": 1485.4629422288417,
      "latitude_deg": 1.666449211801736e-05,
      "longitude_deg": 87.79811319100598,
      "height_km": 1488.9043566735322,
      "semi_major_axis_km": 7872.515014406606,
      "eccentricity": 0.00113243,
      "inclination_deg": 82.5167,
      "raan_deg": 129.0995,
      "arg_perigee_deg": 23.6864,
      "mean_anomaly_deg": 336.4735,
      "mean_motion_rev_day": 12.4288949
    },
    {
      "epoch": "2026-04-05T19:37:25.948416Z",
      "apogee_km": 1503.2962601126592,
      "perigee_km": 1485.4555713430364,
      "latitude_deg": -4.607103039317812e-06,
      "longitude_deg": 0.47366383748544233,
      "height_km": 1488.861704320325,
      "semi_major_axis_km": 7872.512915727847,
      "eccentricity": 0.0011331,
      "inclination_deg": 82.5167,
      "raan_deg": 128.9496,
      "arg_perigee_deg": 23.1049,
      "mean_anomaly_deg": 337.0538,
      "mean_motion_rev_day": 12.42889987
    },
    {
      "epoch": "2026-04-06T05:17:00.612672Z",
      "apogee_km": 1503.2874280471488,
      "perigee_km": 1485.4708219040713,
      "latitude_deg": -2.366217966603597e-06,
      "longitude_deg": -145.0671780074637,
      "height_km": 1488.823727102583,
      "semi_major_axis_km": 7872.516124975609,
      "eccentricity": 0.00113157,
      "inclination_deg": 82.5166,
      "raan_deg": 128.6999,
      "arg_perigee_deg": 22.2268,
      "mean_anomaly_deg": 337.93,
      "mean_motion_rev_day": 12.42889227
    },
    {
      "epoch": "2026-04-07T14:07:34.351392Z",
      "apogee_km": 1503.24559211239,
      "perigee_km": 1485.5110194327708,
      "latitude_deg": -3.379084933640542e-05,
      "longitude_deg": 80.09453424897929,
      "height_km": 1488.7019470806454,
      "semi_major_axis_km": 7872.51530577258,
      "eccentricity": 0.00112636,
      "inclination_deg": 82.5165,
      "raan_deg": 127.851,
      "arg_perigee_deg": 19.3093,
      "mean_anomaly_deg": 340.8411,
      "mean_motion_rev_day": 12.42889421
    },
    {
      "epoch": "2026-04-07T19:55:19.116768Z",
      "apogee_km": 1503.2411177566155,
      "perigee_km": 1485.512216977706,
      "latitude_deg": -1.6774260356379028e-06,
      "longitude_deg": -7.229808401880246,
      "height_km": 1488.674329015015,
      "semi_major_axis_km": 7872.51366736716,
      "eccentricity": 0.001126,
      "inclination_deg": 82.5166,
      "raan_deg": 127.7012,
      "arg_perigee_deg": 18.7368,
      "mean_anomaly_deg": 341.4124,
      "mean_motion_rev_day": 12.42889809
    },
    {
      "epoch": "2026-04-08T13:18:33.463872Z",
      "apogee_km": 1503.203934298971,
      "perigee_km": 1485.5518664887113,
      "latitude_deg": -1.7846985461396735e-05,
      "longitude_deg": 90.79713587072844,
      "height_km": 1488.6431512918198,
      "semi_major_axis_km": 7872.51490039384,
      "eccentricity": 0.00112112,
      "inclination_deg": 82.5165,
      "raan_deg": 127.252,
      "arg_perigee_deg": 17.2802,
      "mean_anomaly_deg": 342.8657,
      "mean_motion_rev_day": 12.42889517
    },
    {
      "epoch": "2026-04-09T20:13:12.304992Z",
      "apogee_km": 1503.1696145274627,
      "perigee_km": 1485.588711432295,
      "latitude_deg": -2.8133739866721467e-05,
      "longitude_deg": -14.933268304058416,
      "height_km": 1488.561464174758,
      "semi_major_axis_km": 7872.516162979879,
      "eccentricity": 0.0011166,
      "inclination_deg": 82.5167,
      "raan_deg": 126.4529,
      "arg_perigee_deg": 14.4686,
      "mean_anomaly_deg": 345.6711,
      "mean_motion_rev_day": 12.42889218
    }
  ]
}